name,formatted_address,street_number,route,locality,administrative_area_level_2,administrative_area_level_1,country,postal_code_prefix,lat,lng
Allison's Farm Market,"10636 8 Line, Halton Hills, ON L7G, Canada",10636,8 Line,Halton Hills,Halton Regional Municipality,Ontario,Canada,L7G,43.6294338,-79.8993055
Andrew's Scenic Acres & Scotch Block Winery,"9365 10 Side Rd, Milton, ON L9T 2X9, Canada",9365,10 Side Road,Milton,Halton Regional Municipality,Ontario,Canada,,43.573699,-79.9340088
Archibald Orchards & Estate Winery,"6275 Liberty St N, Bowmanville, ON L1C 3K6, Canada",6275,Liberty Street North,Bowmanville,Durham Regional Municipality,Ontario,Canada,,43.99064389999999,-78.7158085
Three Roads Farms Ltd.,"2415 County Rd 2, Peterborough, ON K9J 6X9, Canada",2415,County Road 2,Peterborough,Peterborough County,Ontario,Canada,,44.2241365,-78.23463629999999
Matz Fruit Barn,"6 ON-6, Port Dover, ON N0A 1N7, Canada",6,Ontario 6,Port Dover,Norfolk County,Ontario,Canada,,42.7861772,-80.1962727
Belluz Farms,"752 Candy Mountain Dr, Thunder Bay, ON P7C 5N5, Canada",752,Candy Mountain Drive,Thunder Bay,Thunder Bay District,Ontario,Canada,,48.3261413,-89.4944884
Bennett's Apples & Cider,"944 Garner Rd E, Ancaster, ON L9G 3K9, Canada",944,Garner Road East,Hamilton,Hamilton Division,Ontario,Canada,,43.2082642,-79.9399163
Bickles Orchard Park Farms,"596633 Oxford 59, Woodstock, ON N4S 7W1, Canada",596633,Oxford 59,Woodstock,Oxford County,Ontario,Canada,,43.1719294,-80.78154339999999
Blyleven Farms,"1028 Hutchinson Rd, Lowbanks, ON N0A 1K0, Canada",1028,Hutchinson Road,Lowbanks,Haldimand County,Ontario,Canada,,42.9184635,-79.5081082
Lincoln Line Orchards,"9764 RR 20, Smithville, ON L0R 2A0, Canada",9764,Regional Road 20,Smithville,Niagara Regional Municipality,Ontario,Canada,,43.1455367,-79.70715899999999
Brooks Farms,"122 Ashworth Rd, Mount Albert, ON L0G 1M0, Canada",122,Ashworth Road,Mount Albert,,Ontario,Canada,,44.13761,-79.28721519999999
Burnham Family Farm Market,"7760 County 2 Rd, Cobourg, ON K9A 4J7, Canada",7760,County 2 Road,Cobourg,Northumberland County,Ontario,Canada,,43.9665341,-78.22163350000001
Campbell's Orchard,"1633 County Rd 3, Carrying Place, ON K0K 1L0, Canada",1633,County Road 3,Carrying Place,Prince Edward County,Ontario,Canada,,44.11068059999999,-77.4706233
Lakeshore Farms,"475 Main St, Wellington, ON K0K 3L0, Canada",475,Main Street,,Lennox and Addington County,Ontario,Canada,,44.3266668,-76.8780293
Chappell Farms,"617 Penetanguishene Rd, Barrie, ON L4M 4Y8, Canada",617,Penetanguishene Road,Barrie,Simcoe County,Ontario,Canada,,44.4369685,-79.64462309999999
Thames River Melons Ltd.,"765875 Township Rd 5, Innerkip, ON N0J 1M0, Canada",765875,Township Road 5,Innerkip,Oxford County,Ontario,Canada,,43.1911267,-80.684551
Chudleigh's Apple Farm,"9528 Halton Regional Rd 25, Milton, ON L9T 2X7, Canada",9528,Highway 25,Milton,Halton Regional Municipality,Ontario,Canada,,43.5491097,-79.93793939999999
Shearlea AcresFarm Market,"Lynden, Hamilton, ON L0R, Canada",,,Hamilton,Hamilton Division,Ontario,Canada,L0R,43.2296989,-80.144761
T & K Ferri Orchards,"496415 Grey County Rd 2, Clarksburg, ON N0H 1J0, Canada",496415,Grey County Road 2,The Blue Mountains,Grey County,Ontario,Canada,,44.5037466,-80.4251936
Leisure Farms,"744 Quesnel Rd, Sturgeon Falls, ON P2B 2W2, Canada",744,Quesnel Road,West Nipissing,Nipissing District,Ontario,Canada,,46.34678,-79.9614402
Parkside Farms,"519 Parkside Dr, Waterdown, ON L0R 2H1, Canada",519,Parkside Drive,Hamilton,Hamilton Division,Ontario,Canada,,43.3531697,-79.8827524
Harvest Barn of Niagara,"1822 Niagara Stone Rd, Niagara-on-the-Lake, ON L0S 1J0, Canada",1822,Niagara Stone Road,Niagara-on-the-Lake,Niagara Regional Municipality,Ontario,Canada,,43.2331166,-79.11052529999999
Downey's Farm Market,"13682 Heart Lake Rd, Brampton, ON L6Z 0A1, Canada",13682,Heart Lake Road,Brampton,Peel Regional Municipality,Ontario,Canada,,43.7857046,-79.8490209
Ego's Farm Market & Greenhouse,"596 Horseshoe Valley Rd E, Coldwater, ON L0K 1E0, Canada",596,Horseshoe Valley Road East,Coldwater,Simcoe County,Ontario,Canada,,44.5906925,-79.5825593
Ferguson Produce,"11026 Wellington Rd, St. Thomas, ON N5P 3T1, Canada",11026,Wellington Road,Saint Thomas,Elgin County,Ontario,Canada,,42.8145581,-81.2093208
Millers' Farm and Market,"6158 Rideau Valley Dr N, Manotick, ON K4M 1B3, Canada",6158,Rideau Valley Drive North,Ottawa,Ottawa Division,Ontario,Canada,,45.1907609,-75.65268189999999
Morrison Berries Country Market,"Campbell St, Lucknow, ON N0G 2H0, Canada",,Campbell Street,Lucknow,,Ontario,Canada,,43.96043359999999,-81.5140608
Valleyview Little Animal Farm,"4750 Fallowfield Rd, Nepean, ON K2J 4S4, Canada",4750,Fallowfield Road,Ottawa,Ottawa Division,Ontario,Canada,,45.266505,-75.80978
Apple Land Station,"329 Richmond St, Thorndale, ON N0M 2P0, Canada",329,Richmond Street,Thorndale,Middlesex County,Ontario,Canada,,43.0221457,-81.0828801
Nauman's Farm,"3250 Hessen Strasse, St. Clements, ON N0B 2M0, Canada",3250,Hessen Strasse,Saint Clements,Waterloo Regional Municipality,Ontario,Canada,,43.5033789,-80.6373502
Bayfield Berry Farm,"77697 Orchard Line, Bayfield, ON N0M 1G0, Canada",77697,Orchard Line,,Huron County,Ontario,Canada,,43.6031377,-81.6848649
Nith Valley Apiaries,"1041 Christner Rd, New Hamburg, ON N3A 3K7, Canada",1041,Christner Road,New Hamburg,Waterloo Regional Municipality,Ontario,Canada,,43.397303,-80.7068773
Vito's Fresh Fruit,"950 Four Mile Creek Rd, Niagara-on-the-Lake, ON L0S 1J0, Canada",950,Four Mile Creek Road,Niagara-on-the-Lake,Niagara Regional Municipality,Ontario,Canada,,43.1915942,-79.1075816
Parks Blueberries,"14815 Longwoods Rd, Bothwell, ON N0P 1C0, Canada",14815,Longwoods Road,Bothwell,Chatham-Kent Division,Ontario,Canada,,42.5752068,-81.91016870000001
Brantwood Farm,"251 Powerline Rd, Brantford, ON N3P, Canada",251,Powerline Road,Brantford,,Ontario,Canada,N3P,43.1937487,-80.2325011
The Cider Keg,"1398 Vittoria Rd, Saint Williams, ON N0E 1P0, Canada",1398,Vittoria Road,Saint Williams,Norfolk County,Ontario,Canada,,42.7531432,-80.3456787
Pingle's Farm Market,"1805 Taunton Rd, Hampton, ON L0B 1J0, Canada",1805,Taunton Road,Hampton,Durham Regional Municipality,Ontario,Canada,,43.9532645,-78.79014509999999
Proulx Sugarbush & Berry Farm,"1865 O'Toole Rd, Cumberland, ON K4C 1N2, Canada",1865,O'Toole Road,Ottawa,Ottawa Division,Ontario,Canada,,45.4846918,-75.4208514
Puddicombe Farms,"1468 Hamilton Regional Rd 8, Stoney Creek, ON L8E 5K9, Canada",1468,Highway 8,Hamilton,Hamilton Division,Ontario,Canada,,43.2059009,-79.63249189999999
McCully's Hill Farm Market,"4074 Line 9, St. Marys, ON N4X 1C5, Canada",4074,Line 9,Saint Marys,Perth County,Ontario,Canada,,43.273588,-81.0595116
Silver Creek Nursery,"2343 Gerber Rd, Wellesley, ON N0B 2T0, Canada",2343,Gerber Road,Wellesley,Waterloo Regional Municipality,Ontario,Canada,,43.4691693,-80.7788167
Comolea Farms,"115026 Sideroad 27 & 28, Grand Valley, ON L0N 1G0, Canada",115026,Sideroad 27 & 28,Grand Valley,Dufferin County,Ontario,Canada,,43.9858738,-80.3604561
Richmond Nursery Berry Farm,"5740 Old Richmond Rd, Richmond, ON K0A 2Z0, Canada",5740,Old Richmond Road,Ottawa,Ottawa Division,Ontario,Canada,,45.260397,-75.8192174
Pine Farms Orchard,"2700 16th Sideroad, King City, ON L7B 1A3, Canada",2700,16th Sideroad,King City,York Regional Municipality,Ontario,Canada,,43.9615496,-79.55309629999999
Valley Farm Market,"2457 County Rd 92, Elmvale, ON L0L 1P0, Canada",2457,County Road 92,Elmvale,Simcoe County,Ontario,Canada,,44.5492085,-79.9440125
Saunders Farm,"7893 Bleeks Rd, Ottawa, ON, Canada",7893,Bleeks Road,Ottawa,Ottawa Division,Ontario,Canada,,45.1619807,-75.948298
"""R"" Farm","3388 Concession Rd 3, Newcastle, ON L1B 1L9, Canada",3388,Concession Road 3,Newcastle,Durham Regional Municipality,Ontario,Canada,,43.9322097,-78.6105037
Cricklewood Farm,"27 Grandview Rd, Brighton, ON K0K, Canada",27,Grandview Road,Brighton,Northumberland County,Ontario,Canada,K0K,44.0311527,-77.7751333
Twinkle Berry Farms,"Main St N, Uxbridge, ON, Canada",,Main Street North,Uxbridge,,Ontario,Canada,,44.1177557,-79.12417959999999
Koteles Farms Limited,"164700 New Rd, Tillsonburg, ON N4G 4G7, Canada",164700,New Road,Tillsonburg,Oxford County,Ontario,Canada,,42.8847752,-80.70226129999999
Smith's Apples & Farm Market,"470 The River Rd, Port Elgin, ON N0H 2C7, Canada",470,The River Road,Saugeen Shores,Bruce County,Ontario,Canada,,44.4040936,-81.3492349
Wilmot Orchards Inc.,"3337 Concession Rd 3, Newcastle, ON L1B 1L9, Canada",3337,Concession Road 3,Newcastle,Durham Regional Municipality,Ontario,Canada,,43.9304414,-78.61514249999999
Strom's Farm & Bakery Inc.,"5089 Wellington County Rd 32, Guelph, ON N1H 6J4, Canada",5089,Wellington County Road 32,Guelph,Wellington County,Ontario,Canada,,43.4971933,-80.2934197
Stroud Farms,"4075 Lake Ridge Rd, Whitby, ON L0B, Canada",4075,Lake Ridge Road,Whitby,Durham Regional Municipality,Ontario,Canada,L0B,43.9243694,-79.0094065
Bowman's Berry Patch,"211259 Garden Rd, Hilliardton, ON P0J 1L0, Canada",211259,Garden Road,Hilliardton,Timiskaming District,Ontario,Canada,,47.6910417,-79.7382482
Acorn Creek Garden Farm & Market,"928 Oak Creek Rd, Carp, ON K0A 1L0, Canada",928,Oak Creek Road,Ottawa,Ottawa Division,Ontario,Canada,,45.3147265,-75.9752333
Waterhall Farm,"1413 Brock Rd, Dundas, ON L9H 5E4, Canada",1413,Brock Road,Hamilton,Hamilton Division,Ontario,Canada,,43.365405,-80.0286911
Thiessen Farms,"Jordan Station, ON, Canada",,,Lincoln,Niagara Regional Municipality,Ontario,Canada,,43.1617293,-79.3601336
Tiveron Farms Ltd./ The Apple Market,"2281 Camilla Rd, Mississauga, ON L5A 2K2, Canada",2281,Camilla Road,Mississauga,Peel Regional Municipality,Ontario,Canada,,43.577663,-79.6027906
Nicholyn Farms,"3088 Horseshoe Valley Rd W, Barrie, ON L4M 4Y8, Canada",3088,Horseshoe Valley Road West,Barrie,Simcoe County,Ontario,Canada,,44.5265835,-79.73277089999999
Algoma Orchards Ltd.,"201 Durham Regional Rd 42, Clarington, ON L1B 1L9, Canada",201,Durham Regional Road 42,,Durham Regional Municipality,Ontario,Canada,,43.91346679999999,-78.62650699999999
Murphy's Country Produce,"2040 Guyatt Rd, Binbrook, ON L0R 1C0, Canada",2040,Guyatt Road,Hamilton,Hamilton Division,Ontario,Canada,,43.133861,-79.7760945
Watson Farms Ltd.,"2287 Durham Regional Hwy 2, Bowmanville, ON L1C 3K7, Canada",2287,Durham Regional Highway 2,Bowmanville,Durham Regional Municipality,Ontario,Canada,,43.9099736,-78.7196639
Empire Valley Farm Market,"27983 Talbot Line, Wallacetown, ON N0L 2M0, Canada",27983,Talbot Line,Wallacetown,Elgin County,Ontario,Canada,,42.60715649999999,-81.49981749999999
Whittamore's Farm,"8100 Steeles Ave E, Markham, ON L6B 1A8, Canada",8100,Steeles Avenue East,Markham,York Regional Municipality,Ontario,Canada,,43.8533727,-79.1811008
Whitty Farms,"1776 Fourth Ave, St. Catharines, ON L2R 6P9, Canada",1776,Fourth Avenue,Saint Catharines,Niagara Regional Municipality,Ontario,Canada,,43.1530734,-79.3134165
Willis Family Fruit Farm,"6063 5 Line, Milton, ON L9T 2X8, Canada",6063,5 Line,Milton,Halton Regional Municipality,Ontario,Canada,,43.5205072,-79.8029674
Spirit Tree Estate Cidery,"1137 Boston Mills Rd, Terra Cotta, ON L7C 0N1, Canada",1137,Boston Mills Road,Caledon,Peel Regional Municipality,Ontario,Canada,,43.7569092,-79.944801
Zekveld's Garden Market,"4622 London Line, Wyoming, ON N0N 1T0, Canada",4622,London Line,Plympton-Wyoming,Lambton County,Ontario,Canada,,42.9796836,-82.1131657
Jack's Produce,"35 Agincourt Crescent, St. Catharines, ON L2S 4B4, Canada",35,Agincourt Crescent,Saint Catharines,Niagara Regional Municipality,Ontario,Canada,,43.1353082,-79.2650652
Sahota Farms,"14392 Torbram Rd, Kleinburg, ON L0J, Canada",14392,Torbram Road,Caledon,Peel Regional Municipality,Ontario,Canada,L0J,43.8298768,-79.83650949999999
Korny Korners Farm,"6193 Blackwell Side Rd, Sarnia, ON N7X, Canada",6193,Blackwell Side Road,Sarnia,Lambton County,Ontario,Canada,N7X,43.007139,-82.32050459999999
Elfsong Apiaries,"Tweed, ON K0K, Canada",,,Tweed,Hastings County,Ontario,Canada,K0K,44.474728,-77.310249
Strawberry Tyme Farms Inc.,"Simcoe, ON, Canada",,,Simcoe,Norfolk County,Ontario,Canada,,42.8372632,-80.3040424
Meier Family Organic Farm,"191 River Rd, Welland, ON L3B 5N8, Canada",191,River Road,Welland,Niagara Regional Municipality,Ontario,Canada,,42.969934,-79.30226730000001
Elberta Farms,"353 Governors Rd E, Paris, ON N3L 3E1, Canada",353,Governors Road East,Brant,Brant County,Ontario,Canada,,43.2044754,-80.2838687
Bry-Anne Farms,"471 Foss Rd, Fenwick, ON L0S 1C0, Canada",471,Foss Road,Pelham,Niagara Regional Municipality,Ontario,Canada,,43.0155972,-79.3291107
Wagon Wheel Produce & Corn Maze,"1371 Charlotteville 7 Rd, Simcoe, ON N3Y 4K1, Canada",1371,Charlotteville 7 Road,Simcoe,Norfolk County,Ontario,Canada,,42.7889332,-80.3637597
Great Lakes Farms,"5111 Union Rd, Port Stanley, ON N5L 1J2, Canada",5111,Union Road,Port Stanley,Elgin County,Ontario,Canada,,42.6924855,-81.2332634
McMaze,"17049 Willy Allan Rd, St Andrews West, ON K0C 2A0, Canada",17049,Willy Allan Road,Saint Andrews West,"Stormont, Dundas and Glengarry United Counties",Ontario,Canada,,45.1267735,-74.88575019999999
Crinklaw Maple Products,"4570 Westminster Dr, London, ON N6L 1M9, Canada",4570,Westminster Drive,London,Middlesex County,Ontario,Canada,,42.8972521,-81.26299499999999
Neubrand Country Produce,"6584 49 Line, Monkton, ON N0K 1P0, Canada",6584,49 Line,,Perth County,Ontario,Canada,,43.5858782,-81.15537139999999
Cooper's CSA Farm & Maze,"266 Ashworth Rd, Zephyr, ON L0E 1T0, Canada",266,Ashworth Road,Zephyr,Durham Regional Municipality,Ontario,Canada,,44.1475422,-79.2518384
Farintosh Farms,"11858 Warden Ave, Gormley, ON L0H 1G0, Canada",11858,Warden Avenue,Gormley,York Regional Municipality,Ontario,Canada,,43.93668599999999,-79.3565713
Josmar Acres,"568 Lynden Rd, Brantford, ON N3T 5M1, Canada",568,Lynden Road,Brantford,Brant County,Ontario,Canada,,43.1910979,-80.17163959999999
Giffen's Country Market,"55 Station St, Glen Huron, ON L0M 1L0, Canada",55,Station Street,Glen Huron,Simcoe County,Ontario,Canada,,44.352717,-80.17123099999999
Barbetta Orchards Ltd.,"Meaford, ON, Canada",,,Meaford,Grey County,Ontario,Canada,,44.6059438,-80.5936871
Avonmore Berry Farm Inc.,"16365 4 Rd, Avonmore, ON K0C 1C0, Canada",16365,4 Road,Avonmore,"Stormont, Dundas and Glengarry United Counties",Ontario,Canada,,45.1906824,-74.9801289
Stanleys Olde Maple Lane Farm,"2452 York's Corners Rd, Edwards, ON K0A 1V0, Canada",2452,York's Corners Road,Edwards,Ottawa Division,Ontario,Canada,,45.28192629999999,-75.4438012
Your Farm Market (YFM),"1147 Dundas St, Woodstock, ON N4S 8W3, Canada",1147,Dundas Street,Woodstock,Oxford County,Ontario,Canada,,43.1356898,-80.7237359
Richardson's Corn Maze & Farm Market,"131 River Rd, Dunnville, ON N1A 2W3, Canada",131,River Road,,Haldimand County,Ontario,Canada,,42.9180538,-79.7044705
Wheelbarrow Orchards/Harvest Goodies,"8277 10 Side Rd, Milton, ON L9T 2X9, Canada",8277,10 Side Road,Milton,Halton Regional Municipality,Ontario,Canada,,43.5630085,-79.9453992
Mapleton's Organic Dairy Inc.,"8548 Wellington Road 7, Moorefield, ON N0G 2K0, Canada",8548,Wellington Road 7,Moorefield,Wellington County,Ontario,Canada,,43.8240282,-80.7375086
Hudson's Sweet Corn/Panmure Farms,"2831 Upper Dwyer Hill Rd, Kinburn, ON K0A 2H0, Canada",2831,Upper Dwyer Hill Road,Kinburn,Ottawa Division,Ontario,Canada,,45.3169044,-76.20527810000002
Bill's Turkey Farm,"2978 Holborn Rd, Queensville, ON L0G 1R0, Canada",2978,Holborn Road,East Gwillimbury,York Regional Municipality,Ontario,Canada,,44.1695014,-79.407562
Jardin Rochon Garden,"1101 York's Corners Rd, Edwards, ON K0A 1V0, Canada",1101,York's Corners Road,Edwards,Ottawa Division,Ontario,Canada,,45.321304,-75.464271
White Meadows Farms,"2519 Effingham St, Ridgeville, ON L0S 1M0, Canada",2519,Effingham Street,Pelham,Niagara Regional Municipality,Ontario,Canada,,43.0907103,-79.31242429999999
Meadow Sweet Farm,"12102 Warden Ave, Gormley, ON L0H 1G0, Canada",12102,Warden Avenue,Gormley,York Regional Municipality,Ontario,Canada,,43.9433391,-79.3559903
Clovermead Bees & Honey,"Aylmer, ON, Canada",,,Aylmer,Elgin County,Ontario,Canada,,42.7729381,-80.9828842
Shantz Family Farm,"1544 Bleams Rd, Wilmot, ON N0B, Canada",1544,Bleams Road,,Waterloo Regional Municipality,Ontario,Canada,N0B,43.3944304,-80.56942339999999
Rounds Ranch,"1922 County Rd 92, Elmvale, ON L0L 1P0, Canada",1922,County Road 92,Elmvale,Simcoe County,Ontario,Canada,,44.5541924,-79.93315799999999
Waddell Apples,"1345 Washburn Rd, Kingston, ON K0H, Canada",1345,Washburn Road,Kingston,Frontenac County,Ontario,Canada,K0H,44.3872995,-76.32453220000001
Lennox Farm,"County Rd 124, Shelburne, ON L0N 1S6, Canada",,County Road 124,Shelburne,Simcoe County,Ontario,Canada,,44.361886,-80.2119974
Everdale Organic Farm & Environmental Learning Centre,"5812 6 Line, Hillsburgh, ON N0B 1Z0, Canada",5812,6 Line,Erin,Wellington County,Ontario,Canada,,43.7745966,-80.146349
Homestead Orchards,"3961 Old Homestead Rd, Georgina, ON L0E, Canada",3961,Old Homestead Road,Georgina,York Regional Municipality,Ontario,Canada,L0E,44.2649701,-79.3979945
Goats in Motion,"1988 Hwy 5 W, Troy, ON L0R 2B0, Canada",1988,Highway 5 West,Hamilton,Hamilton Division,Ontario,Canada,,43.2677142,-80.1430572
Sunnivue Farm Inc.,"27093 New Ontario Rd, Ailsa Craig, ON N0M 1A0, Canada",27093,New Ontario Road,Ailsa Craig,Middlesex County,Ontario,Canada,,43.1320059,-81.5524667
Warner's Farm,"4045 John St, Beamsville, ON L0R 1B1, Canada",4045,John Street,Lincoln,Niagara Regional Municipality,Ontario,Canada,,43.1730954,-79.42714099999999
Red Cat Farm,"82560 Bluewater Hwy, Goderich, ON N7A 3Y3, Canada",82560,Bluewater Highway,Goderich,Huron County,Ontario,Canada,,43.8053335,-81.6995657
Shouldice Berry Farm & Market,"Ottawa, ON, Canada",,,Ottawa,Ottawa Division,Ontario,Canada,,45.4215296,-75.69719309999999
Integrated Farms,"5091 10 Line N, Coldwater, ON L0K 1E0, Canada",5091,10 Line North,Coldwater,Simcoe County,Ontario,Canada,,44.6643054,-79.6307405
Fulton's Pancake House & Sugar Bush,"399 Sugar Bush Rd, Pakenham, ON K0A 2X0, Canada",399,Sugar Bush Road,Pakenham,Lanark County,Ontario,Canada,,45.24623589999999,-76.2968801
From the Meadow,"Avon Dr, Belmont, ON N0L 1B0, Canada",,Avon Drive,Belmont,Elgin County,Ontario,Canada,,42.8907616,-81.04372490000002
Peart's Strawberry Farm,"3545 River Rd, Caledonia, ON N3W 2E6, Canada",3545,River Road,Caledonia,Haldimand County,Ontario,Canada,,43.01760790000001,-79.8974558
McLean Berry Farm,"2191 16 Line, Harcourt, ON K0L, Canada",2191,16 Line,Harcourt,Peterborough County,Ontario,Canada,K0L,44.5211676,-78.30991
Grassroots CSA,"736 Bruce County Rd 86, Lucknow, ON N0G 2H0, Canada",736,Bruce County Road 86,Lucknow,,Ontario,Canada,,43.9627303,-81.5197209
Harris Farms,"3216 George Johnston Rd, Barrie, ON L4M 4S4, Canada",3216,George Johnston Road,Barrie,Simcoe County,Ontario,Canada,,44.382363,-79.790364
Sovereign Farms,"130 Lutesville Rd, Waterford, ON N0E 1Y0, Canada",130,Lutesville Road,Waterford,Norfolk County,Ontario,Canada,,42.976428,-80.29335669999999
Staite's Honey Enterprise,"Ashworth Rd, Zephyr, ON L0E 1T0, Canada",,Ashworth Road,Zephyr,Durham Regional Municipality,Ontario,Canada,,44.1544315,-79.2118619
Daniel's Farm,"73 Stephen Dr, Etobicoke, ON M8Y 3M8, Canada",73,Stephen Drive,Toronto,Toronto Division,Ontario,Canada,,43.6339789,-79.4855764
Strawberry Creek Farms,"118 Crittenden Dr, Keswick, ON L4P 4E7, Canada",118,Crittenden Drive,Georgina,York Regional Municipality,Ontario,Canada,,44.1977766,-79.4590388
Berry Hill Fruit Farm,"48937 Glencolin Line, Aylmer, ON N5H 2R6, Canada",48937,Glencolin Line,Aylmer,Elgin County,Ontario,Canada,,42.7917635,-80.9949515
Stonehaven Farm Market,"7388 Guelph Line, Milton, ON L0P, Canada",7388,Guelph Line,Milton,Halton Regional Municipality,Ontario,Canada,L0P,43.4580966,-79.9412755
Mountainoak Cheese Ltd.,"3165 Huron Rd, New Hamburg, ON N3A 3C3, Canada",3165,Huron Road,New Hamburg,Waterloo Regional Municipality,Ontario,Canada,,43.3553813,-80.6430306
The Farm-acy,"148 Concession Rd 6 E, Millgrove, ON L0R 1V0, Canada",148,Concession Road 6 East,Hamilton,Hamilton Division,Ontario,Canada,,43.35198450000001,-79.9461405
Jennen Family Farm Market,"11775 Base Line, Thamesville, ON N0P 2K0, Canada",11775,Base Line,Thamesville,Chatham-Kent Division,Ontario,Canada,,42.5710019,-82.09113570000001
Martin's Family Fruit Farm Ltd.,"1420 Lobsinger Line, Waterloo, ON N2J 4G8, Canada",1420,Lobsinger Line,Waterloo,Waterloo Regional Municipality,Ontario,Canada,,43.514875,-80.56921299999999
Fraberts Fresh Food,"105 Queen St W #3, Fergus, ON N1M 1T7, Canada",105,Queen Street West,Fergus,Wellington County,Ontario,Canada,,43.7047071,-80.3769987
Hewitt's Sweet Corn,"3331 Town Line, Coldwater, ON L0K 1E0, Canada",3331,Town Line,Coldwater,Simcoe County,Ontario,Canada,,44.646786,-79.5338453
Linton's Farm Market,"571 Raglan Rd E, Oshawa, ON L1H 7K4, Canada",571,Raglan Road East,Oshawa,Durham Regional Municipality,Ontario,Canada,,44.0202553,-78.8998112
Murphy's Farm Market and Bakery,"5163 County Rd 10, Alliston, ON L9R 1V2, Canada",5163,County Road 10,,Simcoe County,Ontario,Canada,,44.1738194,-79.8321307
Wholesome Pickins,"472 Church St E, Delhi, ON N4B 1V3, Canada",472,Church Street East,Delhi,Norfolk County,Ontario,Canada,,42.8563544,-80.4750562
Godelie Family Farm,"225754 Otterville Rd, Otterville, ON N0J 1R0, Canada",225754,Otterville Road,Otterville,Oxford County,Ontario,Canada,,42.9298518,-80.58051689999999
Carl Fletcher,"3 Applegate Ln, St. Thomas, ON N5P 3S8, Canada",3,Applegate Lane,Saint Thomas,Elgin County,Ontario,Canada,,42.73545740000001,-81.1968375
Tincap Berry Farm,"4035 County Rd 29, Elizabethtown-Kitley, ON K6T, Canada",4035,County Road 29,,Leeds and Grenville United Counties,Ontario,Canada,K6T,44.6208166,-75.7642953
Snyders Family Farm Ltd.,"936685 Blenheim Rd, Bright, ON N0J 1B0, Canada",936685,Blenheim Road,Bright,Oxford County,Ontario,Canada,,43.3163066,-80.53765
DeVries Fruit Farm,"825 Canboro Rd, Fenwick, ON L0S 1C0, Canada",825,Canboro Road,Pelham,Niagara Regional Municipality,Ontario,Canada,,43.0241935,-79.365028
Kilmarnock Orchard,"1182 Kilmarnock Rd, Jasper, ON K0G 1G0, Canada",1182,Kilmarnock Road,Jasper,Leeds and Grenville United Counties,Ontario,Canada,,44.878507,-75.93154009999999
Cherrylane,"4230 Victoria Ave, Vineland Station, ON L0R 2E0, Canada",4230,Victoria Avenue,Lincoln,Niagara Regional Municipality,Ontario,Canada,,43.160087,-79.3933686
R Family Farm,"3560 3 Line, Cookstown, ON L0L 1L0, Canada",3560,3 Line,Innisfil,Simcoe County,Ontario,Canada,,44.2236042,-79.6676679
Howe Family Farm Market,"7841 Rogers Rd, Aylmer, ON N5H 2R4, Canada",7841,Rogers Road,Aylmer,Elgin County,Ontario,Canada,,42.7395504,-81.00903559999999
Traynor Beef Farms,"2193 County Rd 2, Peterborough, ON K9J 6X9, Canada",2193,County Road 2,Peterborough,Peterborough County,Ontario,Canada,,44.2188512,-78.2563274
Potters Road Berries,"145476 Potters Rd, Tillsonburg, ON N4G 4G7, Canada",145476,Potters Road,Tillsonburg,Oxford County,Ontario,Canada,,42.8847181,-80.6024891
River Road Farms,"652 River Rd, Lindsay, ON K9V 4R4, Canada",652,River Road,Lindsay,Kawartha Lakes Division,Ontario,Canada,,44.281001,-78.73714059999999
Bauman Apiaries,"6927 Nicklin St, Millbank, ON N0K 1L0, Canada",6927,Nicklin Street,Millbank,Perth County,Ontario,Canada,,43.5633568,-80.835668
Burrow/Kosir Farm,"6325 5th Line, Fergus, ON N1M 2W5, Canada",6325,5th Line,Fergus,Wellington County,Ontario,Canada,,43.722882,-80.2914696
SamGra Acres,"Ontario, Canada",,,,,Ontario,Canada,,51.253775,-85.3232139
Oakridge Acres Country Meat Store,"2132 Greenfield Rd, Ayr, ON N0B 1E0, Canada",2132,Greenfield Road,Ayr,Waterloo Regional Municipality,Ontario,Canada,,43.3092696,-80.41655779999999
Leaping Deer Adventure Farm & Market,"544212 Clarke Rd, Ingersoll, ON N5C 3J8, Canada",544212,Clarke Road,Ingersoll,Oxford County,Ontario,Canada,,43.0513754,-80.8312053
West Moira Orchards/McCaw Farms,"537 Moira St W, Belleville, ON K8N 4Z2, Canada",537,Moira Street West,Belleville,Hastings County,Ontario,Canada,,44.16592199999999,-77.418058
Organics Family Farm,"7550 19th Ave, Markham, ON L6B 1A8, Canada",7550,19th Avenue,Markham,York Regional Municipality,Ontario,Canada,,43.9579612,-79.22479369999999
Fields on West Lake,"15786 Loyalist Pkwy, Bloomfield, ON K0K 1G0, Canada",15786,Loyalist Parkway,Prince Edward,Prince Edward County,Ontario,Canada,,43.961195,-77.30583899999999
Fort Rose Maple Company,"27382 Coldstream Rd, Parkhill, ON N0M 2K0, Canada",27382,Coldstream Road,Parkhill,Middlesex County,Ontario,Canada,,43.1138196,-81.6312679
The Red Barn Fruit Farm,"8651 Townsend Line, Arkona, ON N0M 1B0, Canada",8651,Townsend Line,Lambton Shores,Lambton County,Ontario,Canada,,43.0709016,-81.8222689
Binnendyk Orchard,"332700 Plank Line, Tillsonburg, ON N4G 4H1, Canada",332700,Plank Line,Tillsonburg,Oxford County,Ontario,Canada,,42.916426,-80.7624249
Torry Lane Farm-Mille de Fleurs,"1281 Concession Rd 10 W, Puslinch, ON N0B 2J0, Canada",1281,Concession Road 10 West,Puslinch,Hamilton Division,Ontario,Canada,,43.405225,-80.0975024
Rutherford's Farm & Roadside Market,"205 King St E, Colborne, ON K0K 1S0, Canada",205,King Street East,Colborne,Northumberland County,Ontario,Canada,,44.014095,-77.868398
Applewood Farm Winery,"12416 McCowan Rd, Whitchurch-Stouffville, ON L4A 7X5, Canada",12416,McCowan Road,Whitchurch-Stouffville,York Regional Municipality,Ontario,Canada,,43.9638254,-79.30591849999999
Marlin Orchards & Garden Centre,"6864 Orchard Rd, Cornwall, ON K6H 5R5, Canada",6864,Orchard Road,Cornwall,"Stormont, Dundas and Glengarry United Counties",Ontario,Canada,,45.0516795,-74.5934577
Mosborough Country Market,"5284 Wellington County Rd 32, Guelph, ON N1H 6J4, Canada",5284,Wellington County Road 32,Guelph,Wellington County,Ontario,Canada,,43.51789520000001,-80.3222078
Rowen's,"121 Robinson Rd, Waterford, ON N0E 1Y0, Canada",121,Robinson Road,Waterford,Norfolk County,Ontario,Canada,,42.9405308,-80.31495009999999
Powell's Patch Blueberries,"37 Gilbert Rd, Simcoe, ON N3Y 4K2, Canada",37,Gilbert Road,Simcoe,Norfolk County,Ontario,Canada,,42.774904,-80.25753139999999
Dickey Bee Honey Inc.,"4031 3 Line, Cookstown, ON L0L 1L0, Canada",4031,3 Line,Innisfil,Simcoe County,Ontario,Canada,,44.2187757,-79.6875367
Meleg's Lakeview Orchard,"158 Arner Townline, Kingsville, ON N9Y 2E6, Canada",158,Arner Townline,Kingsville,Essex County,Ontario,Canada,,42.0020657,-82.8252997
Steckle's Produce and Flowers,"ON-89, Harriston, ON N0G 1Z0, Canada",,Ontario 89,Minto,Wellington County,Ontario,Canada,,43.93513,-80.8661583
Hotchkiss Homestead,"51240 John Wise Line, Aylmer, ON N5H 2R5, Canada",51240,John Wise Line,Aylmer,Elgin County,Ontario,Canada,,42.7303742,-80.9260654
Adel Farms Inc.,"4172 Tecumseh Line, Tilbury, ON N0P 2L0, Canada",4172,Tecumseh Line,Chatham-Kent,Chatham-Kent Division,Ontario,Canada,,42.3111722,-82.42716659999999
Hipple Farms Limited,"4275 Maple Grove Rd, Beamsville, ON L0R 1B1, Canada",4275,Maple Grove Road,Lincoln,Niagara Regional Municipality,Ontario,Canada,,43.1631737,-79.4243864
Pieter's Appleyard,"13516 County 2 Rd, Cramahe, ON K0K, Canada",13516,County 2 Road,,Northumberland County,Ontario,Canada,K0K,44.01187840000001,-77.8608077
Aylmer Big Apple Orchard Corp.,"11766 Imperial Rd, Aylmer, ON N5H 2R3, Canada",11766,Imperial Road,Aylmer,Elgin County,Ontario,Canada,,42.8125225,-80.98119009999999
Kent Creek Orchard,"1725 McDowell Rd E, Simcoe, ON N3Y 4K5, Canada",1725,McDowell Road East,Simcoe,Norfolk County,Ontario,Canada,,42.8234529,-80.3503739
Board's Honey Farm,"6866 ON-534, Restoule, ON P0H 2R0, Canada",6866,Ontario 534,Restoule,Parry Sound District,Ontario,Canada,,46.0262802,-79.7135402
Tigchelaar Berry Farms,"4171 Jordan Rd, Jordan Station, ON L0R 1S0, Canada",4171,Jordan Road,Lincoln,Niagara Regional Municipality,Ontario,Canada,,43.1657343,-79.3603931
R.V. Farm,"7243 Lennox and Addington County Rd 9, Napanee, ON K7R 3K8, Canada",7243,Lennox and Addington County Road 9,Napanee,Lennox and Addington County,Ontario,Canada,,44.2059675,-76.9171799
O'Keefe Grange,"Dobbinton, ON N0H, Canada",,,Dobbinton,Bruce County,Ontario,Canada,N0H,44.3904943,-81.1339473
Gallery on the Farm,"1721 Durham Regional Rd 3, Hampton, ON L0B 1J0, Canada",1721,Durham Regional Road 3,Hampton,Durham Regional Municipality,Ontario,Canada,,44.0156476,-78.7687
Corn Acre Farms / Wendy's Country Market,"1757 Summers Rd, Lyndhurst, ON K0E 1N0, Canada",1757,Summers Road,Lyndhurst,Leeds and Grenville United Counties,Ontario,Canada,,44.55338700000001,-76.16847700000001
Dingo Farms,"3412 8th Line, Bradford, ON L3Z 2A5, Canada",3412,8th Line,Bradford West Gwillimbury,Simcoe County,Ontario,Canada,,44.1142609,-79.63190809999999
Moore Orchards,"1497 Moore Orchard Rd, Cobourg, ON K9A 4J8, Canada",1497,Moore Orchard Road,Cobourg,Northumberland County,Ontario,Canada,,43.971618,-78.0922858
The Farmer's Pantry,"788030 Grey County Rd 13, Clarksburg, ON N0H 1J0, Canada",788030,Grey County Road 13,The Blue Mountains,Grey County,Ontario,Canada,,44.537026,-80.4670372
VanDorp Farms,"3260 Northumberland County Rd 28, Port Hope, ON L0A, Canada",3260,Northumberland County Road 28,,Northumberland County,Ontario,Canada,L0A,43.9920564,-78.295175
Freeman Herbs Inc.,"4838 Lincoln Ave, Beamsville, ON L0R 1B3, Canada",4838,Lincoln Avenue,Lincoln,Niagara Regional Municipality,Ontario,Canada,,43.188996,-79.4871825
Snowden Farms,"1576 Concession Rd 7, Hampton, ON L0B 1J0, Canada",1576,Concession Road 7,Hampton,Durham Regional Municipality,Ontario,Canada,,43.9860382,-78.8168391
Steed and Company Lavender,"47589 Sparta Line, Aylmer, ON N5H 2R4, Canada",47589,Sparta Line,Aylmer,Elgin County,Ontario,Canada,,42.7006542,-81.0434492
Geissberger Farmhouse Cider,"5345 Langmaid Rd, Hampton, ON L0B 1J0, Canada",5345,Langmaid Road,Hampton,Durham Regional Municipality,Ontario,Canada,,43.9543802,-78.8175297
Heatherlea Farm Shoppe,"17049 Winston Churchill Blvd, Caledon, ON L7K 0E8, Canada",17049,Winston Churchill Boulevard,Caledon,,Ontario,Canada,,43.7788063,-80.0282261
Tawse Winery,"3955 Cherry Ave, Vineland, ON L0R 2C0, Canada",3955,Cherry Avenue,Lincoln,Niagara Regional Municipality,Ontario,Canada,,43.1495897,-79.4135311
Sunshine Farms,"30043 Jane Rd, Thamesville, ON N0P 2K0, Canada",30043,Jane Road,Thamesville,Chatham-Kent Division,Ontario,Canada,,42.61558160000001,-81.962724
Albion Orchards Apple Farm & Country Market,"14800 Innis Lake Rd, Kleinburg, ON L0J, Canada",14800,Innis Lake Road,Caledon,Peel Regional Municipality,Ontario,Canada,L0J,43.8548722,-79.8227935
Barrie Hill Farms,"2935 Barrie Hill Rd, Barrie, ON L4M 4S4, Canada",2935,Barrie Hill Road,Barrie,Simcoe County,Ontario,Canada,,44.400972,-79.782951
Brantview Apples & Cider,"225 Howell Rd, Saint George, ON N0E 1N0, Canada",225,Howell Road,Saint George,Brant County,Ontario,Canada,,43.2556626,-80.2735373
Hulshof Farm Market,"5538 Bloomington Rd, Whitchurch-Stouffville, ON L4A 7X3, Canada",5538,Bloomington Road,Whitchurch-Stouffville,York Regional Municipality,Ontario,Canada,,44.0049459,-79.2801441
Forsythe Family Farms 2009 Inc.,"1025 Cragg Rd, Uxbridge, ON L9P 1R3, Canada",1025,Cragg Road,Uxbridge,Durham Regional Municipality,Ontario,Canada,,44.1495219,-79.0279079
Haute Goat,"1969 Burnbrae Rd E, Campbellford, ON K0L, Canada",1969,Burnbrae Road East,Campbellford,Northumberland County,Ontario,Canada,K0L,44.3119919,-77.74467299999999
Frootogo Orchards,"573 Parkside Dr, Waterdown, ON L0R 2H1, Canada",573,Parkside Drive,Hamilton,Hamilton Division,Ontario,Canada,,43.3568428,-79.8781047
Gammondale Farm,"426 McCluskey Dr, Thunder Bay, ON P7C 4V2, Canada",426,McCluskey Drive,Thunder Bay,Thunder Bay District,Ontario,Canada,,48.3076189,-89.4981097
Garrett's Farm Market & Greenhouse,"824 Penetanguishene Rd, Barrie, ON L4M 4Y8, Canada",824,Penetanguishene Road,Barrie,Simcoe County,Ontario,Canada,,44.4530153,-79.6590073
Gillespie's Garden,"1043 Brantford Hwy, Cambridge, ON N1R 5S6, Canada",1043,Brantford Highway,Cambridge,Waterloo Regional Municipality,Ontario,Canada,,43.3326678,-80.3126369
Hall's Apple Market,"2930 Concession 2 Rd, Maitland, ON K6V 5T1, Canada",2930,Concession 2 Road,,Leeds and Grenville United Counties,Ontario,Canada,,44.6297195,-75.6604284
Heeman Greenhouses & Strawberry Farm,"20422 Nissouri Rd, Thorndale, ON N0M 2P0, Canada",20422,Nissouri Road,Thorndale,Middlesex County,Ontario,Canada,,43.0401743,-81.125462
Herrle's Country Farm Market,"1243 Erbs Rd, St. Agatha, ON N0B 2L0, Canada",1243,Erbs Road,Saint Agatha,Waterloo Regional Municipality,Ontario,Canada,,43.4393714,-80.59992179999999
Hillsview Greenhouses & Market Produce,"37106 Belgrave Rd, Lucknow, ON N0G 2H0, Canada",37106,Belgrave Road,Lucknow,Huron County,Ontario,Canada,,43.894892,-81.558453
Have Fun @ Howells,"2878 Holland Rd, Thorold, ON L0S 1E6, Canada",2878,Holland Road,Thorold,Niagara Regional Municipality,Ontario,Canada,,43.0780852,-79.272555
Hugli's Blueberry Ranch,"2139 Greenwood Rd, Pembroke, ON K8A 6W2, Canada",2139,Greenwood Road,Pembroke,Renfrew County,Ontario,Canada,,45.780678,-77.05135790000001
Jakeman's Maple Products,"454414 Trillium Line, Beachville, ON N0J 1A0, Canada",454414,Trillium Line,Beachville,Oxford County,Ontario,Canada,,43.06413750000001,-80.77582989999999
Janssens Farm Market & U Pick,"5885 Falconbridge Dr, Appin, ON N0L 1A0, Canada",5885,Falconbridge Drive,Appin,Middlesex County,Ontario,Canada,,42.8272336,-81.62638319999999
Johnston's Cranberry Marsh / Muskoka Lakes Winery,"1074 Cranberry Rd, Bala, ON P0C 1A0, Canada",1074,Cranberry Road,Bala,Muskoka District Municipality,Ontario,Canada,,45.0573909,-79.64658879999999
Kurtz Orchards Market,"16006 Niagara Pkwy, Niagara-on-the-Lake, ON L0S 1J0, Canada",16006,Niagara Parkway,Niagara-on-the-Lake,Niagara Regional Municipality,Ontario,Canada,,43.2356842,-79.0638536
Lindley's Farm & Market Ltd.,"900 Fiddlers Green Rd, Ancaster, ON L9G 3L1, Canada",900,Fiddlers Green Road,Hamilton,Hamilton Division,Ontario,Canada,,43.1895951,-79.9786493
McGregor's Produce,"351 Lochwinnoch Rd, Braeside, ON K0A 1G0, Canada",351,Lochwinnoch Road,Braeside,Renfrew County,Ontario,Canada,,45.4825161,-76.51974860000001
Nokara Farms,"1090 Lakeshore Rd W, St. Catharines, ON L2R 6P9, Canada",1090,Lakeshore Road West,Saint Catharines,Niagara Regional Municipality,Ontario,Canada,,43.1876938,-79.2984622
Orchalaw Farms,"9726 Heritage Rd, Brampton, ON L6X, Canada",9726,Heritage Road,Brampton,Peel Regional Municipality,Ontario,Canada,L6X,43.6509609,-79.8315239
Springridge Farm,"7256 Bell School Line, Milton, ON L9T 2Y1, Canada",7256,Bell School Line,Milton,Halton Regional Municipality,Ontario,Canada,,43.4819857,-79.9041063
The Apple Factory,"10024 Mississauga Rd, Brampton, ON L7A 0B5, Canada",10024,Mississauga Road,Brampton,Peel Regional Municipality,Ontario,Canada,,43.6670352,-79.8299691
Willowtree Farm Market,"975 Durham Regional Rd 21, Port Perry, ON L9L 1B5, Canada",975,Durham Regional Road 21,Port Perry,Durham Regional Municipality,Ontario,Canada,,44.077726,-78.98349619999999
Peach Country Farm Market,"4490 Victoria Ave, Vineland Station, ON L0R 2E0, Canada",4490,Victoria Avenue,Lincoln,Niagara Regional Municipality,Ontario,Canada,,43.1696051,-79.3939479
Thatcher Farms,"5727 5th Line, Guelph/Eramosa, ON N0B, Canada",5727,5th Line,,Wellington County,Ontario,Canada,N0B,43.656878,-80.1978731
VG Meats,"966 Concession 6 Woodhouse, Norfolk County, ON N0E, Canada",966,Concession 6 Woodhouse,,Norfolk County,Ontario,Canada,N0E,42.8466718,-80.2205559
Mountain Orchards,"10175 Clark Rd, Mountain, ON K0E 1S0, Canada",10175,Clark Road,Mountain,"Stormont, Dundas and Glengarry United Counties",Ontario,Canada,,45.024634,-75.52605799999999
Reesor Farm Market,"10825 Ninth Line, Markham, ON L6B 1A8, Canada",10825,Ninth Line,Markham,York Regional Municipality,Ontario,Canada,,43.9348923,-79.2487668
William's Orchard,"10101 Hume Ct, Milton, ON L9T 2X9, Canada",10101,Hume Court,Milton,Halton Regional Municipality,Ontario,Canada,,43.5723066,-79.9409287
Vail's Orchards,"205790 ON-26, Meaford, ON N4L 1C5, Canada",205790,Ontario 26,Meaford,Grey County,Ontario,Canada,,44.6116514,-80.63952809999999
Trembling Aspens Herb Farm,"9689 Concession Rd 3, Caistor Centre, ON L0R 1E0, Canada",9689,Concession Road 3,Caistor Centre,,Ontario,Canada,,43.0837474,-79.7242973
Creasy's Apple Dabble Farm,"8 County Rd 4, Prince Edward, ON K0K, Canada",8,County Road 4,Prince Edward,Prince Edward County,Ontario,Canada,K0K,44.0046792,-77.15237549999999
White Feather Country Store,"15 Raglan Rd E, Oshawa, ON L1H 7K4, Canada",15,Raglan Road East,Oshawa,Durham Regional Municipality,Ontario,Canada,,44.017911,-78.9250689
Floralane Produce,"2191 Arthur St N, Elmira, ON N3B 2Z1, Canada",2191,Arthur Street North,Elmira,Waterloo Regional Municipality,Ontario,Canada,,43.6324341,-80.5500486
Franklin Farm Herbals and Market,"1453 Fleetwood Rd, Bethany, ON L0A 1A0, Canada",1453,Fleetwood Road,Kawartha Lakes,Kawartha Lakes Division,Ontario,Canada,,44.2329918,-78.58268149999999
Dixie Orchards,"14309 Dixie Rd, Kleinburg, ON L7C 2M5, Canada",14309,Dixie Road,Caledon,Peel Regional Municipality,Ontario,Canada,,43.8080714,-79.8541295
Brambleberry Farm,"9 Mitchell Rd, Wooler, ON K0K 3M0, Canada",9,Mitchell Road,Quinte West,Hastings County,Ontario,Canada,,44.1852431,-77.6692119
Round the Bend Farm,"16225 Jane St, King City, ON L7B 1A3, Canada",16225,Jane Street,King City,York Regional Municipality,Ontario,Canada,,44.0018171,-79.5726116
Bonnieheath Estate Lavender & Winery,"Waterford, ON N0E, Canada",,,Waterford,Norfolk County,Ontario,Canada,N0E,42.9316056,-80.2895832
Debackere Farms Inc.,"5013 Yarmouth Centre Rd, Union, ON N0L 2L0, Canada",5013,Yarmouth Centre Road,Union,Elgin County,Ontario,Canada,,42.677836,-81.1286508
The Poultry Place,"1010 Three Bridges Rd, St. Jacobs, ON N0B 2N0, Canada",1010,Three Bridges Road,Saint Jacobs,Waterloo Regional Municipality,Ontario,Canada,,43.51787179999999,-80.57000169999999
19th Ave. Farmers Market,"2931 19th Ave, Markham, ON L6C 1L7, Canada",2931,19th Avenue,Markham,York Regional Municipality,Ontario,Canada,,43.9215283,-79.3788719
f.N. Happy Farm,"439 Feasby Rd, Uxbridge, ON L9P 1R1, Canada",439,Feasby Road,Uxbridge,Durham Regional Municipality,Ontario,Canada,,44.1108024,-79.1907667
Theadora's Orchard,"5210 King St, Beamsville, ON L0R 1B3, Canada",5210,King Street,Lincoln,Niagara Regional Municipality,Ontario,Canada,,43.1693071,-79.4874356
Kent Kreek Berries,"3173 ON-3, Simcoe, ON N3Y 4J9, Canada",3173,Highway 3,Simcoe,Norfolk County,Ontario,Canada,,42.8356146,-80.3645602
Berryview Farm,"13707 Heart Lake Rd, Inglewood, ON L7C 2K6, Canada",13707,Heart Lake Road,Caledon,Peel Regional Municipality,Ontario,Canada,,43.7852792,-79.8471682
Harris Flower Farm,"42488 Ron McNeil Line, St. Thomas, ON N5P 3T1, Canada",42488,Ron McNeil Line,Saint Thomas,Elgin County,Ontario,Canada,,42.8152607,-81.1904284
Speers Farms Amaranth,"Orangeville, ON, Canada",,,Orangeville,Dufferin County,Ontario,Canada,,43.9199788,-80.0943113
Orchard Home Farm,"235 Howell Rd, Saint George, ON N0E 1N0, Canada",235,Howell Road,Saint George,Brant County,Ontario,Canada,,43.2561499,-80.27619519999999
Johnston's Farm Market,"10704 Northumberland County Rd 28, Bailieboro, ON K0L 1B0, Canada",10704,Northumberland County Road 28,Bailieboro,Northumberland County,Ontario,Canada,,44.1149603,-78.34478320000001
Busy Liz's Farm Shop,"8405 Guelph Line, Milton, ON L0P, Canada",8405,Guelph Line,Milton,Halton Regional Municipality,Ontario,Canada,L0P,43.4773339,-79.96815749999999
Oaklane Orchard,"496445 Grey County Rd 2, Clarksburg, ON N0H 1J0, Canada",496445,Grey County Road 2,The Blue Mountains,Grey County,Ontario,Canada,,44.50592959999999,-80.42567729999999
Cheer Farms,"Brighton, ON, Canada",,,Brighton,Northumberland County,Ontario,Canada,,44.0422599,-77.73688279999999
Delhaven Orchards Ltd.,"8182 Talbot Trail, Blenheim, ON N0P 1A0, Canada",8182,Talbot Trail,Chatham-Kent,Chatham-Kent Division,Ontario,Canada,,42.2597739,-82.05995449999999
Farmtown Canada,"46703 Mapleton Line, Aylmer, ON N5H 2R6, Canada",46703,Mapleton Line,Aylmer,Elgin County,Ontario,Canada,,42.8226023,-81.0670547
Breedon's Maple Syrup,"Alliston, New Tecumseth, ON, Canada",,,New Tecumseth,Simcoe County,Ontario,Canada,,44.1539514,-79.8691544
Frank E.'s,"1936 Regional Rd 4, Vanessa, ON N0E 1V0, Canada",1936,Regional Road 4,Vanessa,Norfolk County,Ontario,Canada,,42.9663006,-80.39660409999999
Thiessen Orchards Ltd.,"400 Talbot Rd E, Leamington, ON N8H 3V6, Canada",400,Talbot Road East,Leamington,Essex County,Ontario,Canada,,42.0633688,-82.55796389999999
Rose Family Farm,"17569 Centre St, Mount Albert, ON L0G 1M0, Canada",17569,Centre Street,Mount Albert,York Regional Municipality,Ontario,Canada,,44.09865749999999,-79.29644119999999
Sheldon Creek Dairy,"4316 Concession 5, Loretto, ON L0G 1L0, Canada",4316,Concession 5,Loretto,Simcoe County,Ontario,Canada,,44.0997151,-79.92039969999999
Abbey Gardens Community Trust,"Garden Gate Dr, Algonquin Highlands, ON K0M 1J1, Canada",,Garden Gate Drive,,Haliburton County,Ontario,Canada,,45.1052755,-78.6168229
Fisherville Greenhouses,"Concession 5 Rd, Fisherville, ON N0A 1G0, Canada",,Concession 5 Road,Fisherville,Haldimand County,Ontario,Canada,,42.8822367,-79.89918
Foster Family Farm,"2132 Lockhead Rd W, North Gower, ON K0G 1J0, Canada",2132,Lockhead Road West,Ottawa,Ottawa Division,Ontario,Canada,,45.1219938,-75.6825094
Trillium Ridge Sugarworks,"254 Maple Sugar Rd, Shannonville, ON K0K 3A0, Canada",254,Maple Sugar Road,Shannonville,Hastings County,Ontario,Canada,,44.3420044,-77.1725898
Steward's Blueberries,"238 Brant County Hwy 53, Brant, ON N0E, Canada",238,Brant County Highway 53,Brant,Brant County,Ontario,Canada,N0E,43.100773,-80.445405
Marci Lipman Country,"487280 30 Side Rd, Shelburne, ON L0N 1S8, Canada",487280,30 Side Road,Shelburne,Dufferin County,Ontario,Canada,,44.0894292,-80.0958193
Wilson's Fresh Blueberries,"61 Settlement Rd, Lindsay, ON K9V 4R5, Canada",61,Settlement Road,Lindsay,Kawartha Lakes Division,Ontario,Canada,,44.4209411,-78.5227925
Talbotville Berry Farm,"11054 Sunset Dr, St. Thomas, ON N5P 3T2, Canada",11054,Sunset Drive,Saint Thomas,Elgin County,Ontario,Canada,,42.81126099999999,-81.2565218
Goldsmith's Orchard Market,"207600 ON-26, Thornbury, ON N0H 2P0, Canada",207600,Ontario 26,The Blue Mountains,Grey County,Ontario,Canada,,44.571278,-80.4765855
Serenity Lavender,"Southwestern Ontario Heritage Village, Essex, ON N0R, Canada",,,Essex,Essex County,Ontario,Canada,N0R,42.031929,-82.915123
Munro Honey & Meadery,"3115 River St, Alvinston, ON N0N 1A0, Canada",3115,River Street,Alvinston,Lambton County,Ontario,Canada,,42.812798,-81.858671
Fresh and Tasty Mushrooms,"475226 Dufferin County Road 11, Shelburne, ON L0N 1S0, Canada",475226,Dufferin County Road 11,Shelburne,Dufferin County,Ontario,Canada,,44.03279089999999,-80.1925995
South Pond Farms,"1020 Gray Rd, Pontypool, ON L0A 1K0, Canada",1020,Gray Road,Kawartha Lakes,Kawartha Lakes Division,Ontario,Canada,,44.1586143,-78.6076872
Arrowwood Farm,"6460 Riverside Dr, Melbourne, ON N0L 1T0, Canada",6460,Riverside Drive,Melbourne,Middlesex County,Ontario,Canada,,42.7777124,-81.51139289999999
Barrett's Christmas Tree Farm,"3141 Williamson Rd, Cobourg, ON K9A 4J7, Canada",3141,Williamson Road,Cobourg,Northumberland County,Ontario,Canada,,44.01677360000001,-78.2311661
Masse Fruit and Vegetable Farm,"35291 Zurich Hensall Rd, Zurich, ON N0M 2T0, Canada",35291,Zurich Hensall Road,Zurich,Huron County,Ontario,Canada,,43.41280039999999,-81.700041
Berrylicious Fruit Farm,"425533 Substation Rd, Burgessville, ON N0J 1C0, Canada",425533,Substation Road,Burgessville,Oxford County,Ontario,Canada,,43.0576757,-80.64448469999999
Windwood Farms,"4198 King St, Beamsville, ON L0R 1B1, Canada",4198,King Street,Lincoln,Niagara Regional Municipality,Ontario,Canada,,43.1587803,-79.4341434
Olkaga Country Market,"402346 Grey County Rd 4, Hanover, ON N4N 3B8, Canada",402346,Grey County Road 4,Hanover,Grey County,Ontario,Canada,,44.1726857,-80.8975365
Thompson's Orchard,"19863 Charing Cross Rd, Blenheim, ON N0P 1A0, Canada",19863,Charing Cross Road,Chatham-Kent,Chatham-Kent Division,Ontario,Canada,,42.2946186,-82.0490062
Lake Land Meats & Farm Market,"1226 St Paul St W, St. Catharines, ON L2R 6P7, Canada",1226,Saint Paul Street West,Saint Catharines,Niagara Regional Municipality,Ontario,Canada,,43.141214,-79.27962
Blueberry Knoll Berry Farm,"1090 Hutchinson Rd, Lowbanks, ON N0A 1K0, Canada",1090,Hutchinson Road,Lowbanks,Haldimand County,Ontario,Canada,,42.9218462,-79.5109609
Landman Gardens & Bakery,"322345 Concession Rd 5, Grand Valley, ON L0N 1G0, Canada",322345,Concession Road 5,Grand Valley,Dufferin County,Ontario,Canada,,43.92631069999999,-80.3088958
Oak Knoll Farms,"5754 3 Line, Hillsburgh, ON N0B 1Z0, Canada",5754,3 Line,Erin,Wellington County,Ontario,Canada,,43.7233198,-80.14942649999999
Pine Hill Orchards,"1818 Saint Félix Road, Bourget, ON K0A 1E0, Canada",1818,Saint Félix Road,Clarence-Rockland,Prescott and Russell United Counties,Ontario,Canada,,45.418582,-75.17761209999999
Greenshire Eco Farms Inc.,"1563 Pigeon Lake Rd, Lindsay, ON K9V 4R5, Canada",1563,Pigeon Lake Road,Lindsay,Kawartha Lakes Division,Ontario,Canada,,44.39990479999999,-78.5334194
Mitchdale Farms,"96 Ontario St S, St. Marys, ON N4X, Canada",96,Ontario Street South,Saint Marys,Perth County,Ontario,Canada,N4X,43.25632419999999,-81.14769679999999
Sweet Ridge Farms,"8327 Steeles Ave E, Markham, ON L6B 1A8, Canada",8327,Steeles Avenue East,Markham,,Ontario,Canada,,43.8537822,-79.1775117
Vandermeer Nursery Ltd.,"588 Lake Ridge Rd S, Ajax, ON L1Z 1X3, Canada",588,Lake Ridge Road South,Ajax,Durham Regional Municipality,Ontario,Canada,,43.8529457,-78.9795733
Crunican Orchards,"23840 Richmond St, London, ON N5X 4B2, Canada",23840,Richmond Street,London,Middlesex County,Ontario,Canada,,43.1509918,-81.3402287
Pardo's Berie Farm,"7951 Talbot Trail, Blenheim, ON N0P 1A0, Canada",7951,Talbot Trail,Chatham-Kent,Chatham-Kent Division,Ontario,Canada,,42.2597996,-82.0599688
Top Market Rabbitry,"5887 Splint Rd, Ariss, ON N0B 1B0, Canada",5887,Splint Road,Ariss,,Ontario,Canada,,43.579432,-80.4040739
Stonefield Garden Centre & Market Ltd.,"77688 Orchard Line, Bayfield, ON N0M 1G0, Canada",77688,Orchard Line,,Huron County,Ontario,Canada,,43.599638,-81.68139500000001
Meadow Lynn Farms,"144 Decou Rd, Simcoe, ON N3Y 4K2, Canada",144,Decou Road,Simcoe,Norfolk County,Ontario,Canada,,42.8235323,-80.2876565
Voisin's Maple Products Ltd.,"10 Concession Rd 12, Mildmay, ON N0G 2J0, Canada",10,Concession Road 12,Mildmay,Bruce County,Ontario,Canada,,44.0670086,-81.2167251
Apple Hill Lavender,"1795 Windham Road 11, Windham Centre, ON N0E 2A0, Canada",1795,Windham Road 11,Windham Centre,Norfolk County,Ontario,Canada,,42.89190749999999,-80.3279739
Carron Farms Ltd.,"819 Canal Rd, Bradford, ON L3Z 2A6, Canada",819,Canal Road,Bradford West Gwillimbury,Simcoe County,Ontario,Canada,,44.0439666,-79.6235662
Dyment's Farm,"416 Fallsview Rd E, Dundas, ON L9H 5E2, Canada",416,Fallsview Road East,Hamilton,Hamilton Division,Ontario,Canada,,43.2793111,-79.95613820000001
Miller's Bay Farm,"65 Rideau Ferry Rd, Lombardy, ON K0G 1L0, Canada",65,Rideau Ferry Road,Lombardy,Leeds and Grenville United Counties,Ontario,Canada,,44.83817579999999,-76.1278859
Cristan Farms,"494 Winston Churchill Blvd, Oakville, ON L6J 7X2, Canada",494,Winston Churchill Boulevard,Oakville,Halton Regional Municipality,Ontario,Canada,,43.4868616,-79.6328747
Earthly Delights,"35 Biggars Ln, Mount Pleasant, ON N0E 1K0, Canada",35,Biggars Lane,Brant,Brant County,Ontario,Canada,,43.063968,-80.29121169999999
Graham Creek Farm,"3582 Morgans Rd, Newcastle, ON L1B 1L9, Canada",3582,Morgans Road,Newcastle,Durham Regional Municipality,Ontario,Canada,,43.9636721,-78.5476439
Ferguson Farms Fresh Produce,"7994 Mill St, Campbellcroft, ON L0A 1B0, Canada",7994,Mill Street,Campbellcroft,Northumberland County,Ontario,Canada,,44.0570051,-78.4036074
Strickland's Perennial Farm,"5467 Middle Rd, Bowmanville, ON L1C 3K6, Canada",5467,Middle Road,Bowmanville,Durham Regional Municipality,Ontario,Canada,,43.979213,-78.72174
